STARLINK-31561          
1 59352U 24060E   26068.53227136 -.00000079  00000+0  66345-5 0  9992
2 59352  42.9985 260.3254 0000666 172.8342 187.2519 15.27576343110042
FLOCK 4G-5              
1 62663U 25009BG  26068.45638436  .00011278  00000+0  40688-3 0  9997
2 62663  97.4058 151.2478 0002094 314.5072  45.5996 15.28679529 63699
